{
  "type": "FeatureCollection",
  "features": [
    {
      "type": "Feature",
      "properties": {
        "norad_id": 36680,
        "name": "FENGYUN 1C DEB",
        "group": "fengyun-1c-debris",
        "lat": 24.698559086553807,
        "lon": -28.318138430174574,
        "alt_km": 907.442251743636,
        "timestamp": "2025-12-09T09:46:47.935033+00:00",
        "meta_object_name": "FENGYUN 1C DEB",
        "meta_object_id": "1999-025DZA",
        "meta_epoch": "2025-12-08T10:42:54.314208",
        "meta_mean_motion": 14.18615718,
        "meta_eccentricity": 0.01884659,
        "meta_inclination": 98.5487,
        "meta_ra_of_asc_node": 334.7218,
        "meta_arg_of_pericenter": 261.8756,
        "meta_mean_anomaly": 256.1951,
        "meta_ephemeris_type": 0,
        "meta_classification_type": "U",
        "meta_norad_cat_id": 36680,
        "meta_element_set_no": 999,
        "meta_rev_at_epoch": 64236,
        "meta_bstar": 0.0009607999,
        "meta_mean_motion_dot": 2.329e-05,
        "meta_mean_motion_ddot": 0,
        "tle_line1": "1 36680U 99025DZA 25342.44646197  .00002329  00000+0  96080-3 0  9996",
        "tle_line2": "2 36680  98.5487 334.7218 0188465 261.8756 256.1951 14.18615718642363"
      },
      "geometry": {
        "type": "Point",
        "coordinates": [
          -28.318138430174574,
          24.698559086553807
        ]
      }
    },
    {
      "type": "Feature",
      "properties": {
        "norad_id": 36681,
        "name": "FENGYUN 1C DEB",
        "group": "fengyun-1c-debris",
        "lat": -35.9611907632207,
        "lon": -11.490427428647886,
        "alt_km": 837.9199890761447,
        "timestamp": "2025-12-09T09:46:47.935044+00:00",
        "meta_object_name": "FENGYUN 1C DEB",
        "meta_object_id": "1999-025DZB",
        "meta_epoch": "2025-11-19T06:21:10.816992",
        "meta_mean_motion": 14.10187867,
        "meta_eccentricity": 0.00454,
        "meta_inclination": 98.6964,
        "meta_ra_of_asc_node": 322.6587,
        "meta_arg_of_pericenter": 56.031,
        "meta_mean_anomaly": 304.5163,
        "meta_ephemeris_type": 0,
        "meta_classification_type": "U",
        "meta_norad_cat_id": 36681,
        "meta_element_set_no": 999,
        "meta_rev_at_epoch": 72427,
        "meta_bstar": 0.00080116575,
        "meta_mean_motion_dot": 1.39e-05,
        "meta_mean_motion_ddot": 0,
        "tle_line1": "1 36681U 99025DZB 25323.26470853  .00001390  00000+0  80117-3 0  9991",
        "tle_line2": "2 36681  98.6964 322.6587 0045400  56.0310 304.5163 14.10187867724276"
      },
      "geometry": {
        "type": "Point",
        "coordinates": [
          -11.490427428647886,
          -35.9611907632207
        ]
      }
    },
    {
      "type": "Feature",
      "properties": {
        "norad_id": 36682,
        "name": "FENGYUN 1C DEB",
        "group": "fengyun-1c-debris",
        "lat": -54.045436149343665,
        "lon": -100.52904395321734,
        "alt_km": 842.0847871027509,
        "timestamp": "2025-12-09T09:46:47.935054+00:00",
        "meta_object_name": "FENGYUN 1C DEB",
        "meta_object_id": "1999-025DZC",
        "meta_epoch": "2025-12-06T04:55:28.030656",
        "meta_mean_motion": 13.7010637,
        "meta_eccentricity": 0.02343342,
        "meta_inclination": 98.485,
        "meta_ra_of_asc_node": 244.7666,
        "meta_arg_of_pericenter": 294.8114,
        "meta_mean_anomaly": 62.8827,
        "meta_ephemeris_type": 0,
        "meta_classification_type": "U",
        "meta_norad_cat_id": 36682,
        "meta_element_set_no": 999,
        "meta_rev_at_epoch": 61303,
        "meta_bstar": 0.0027042096,
        "meta_mean_motion_dot": 2.849e-05,
        "meta_mean_motion_ddot": 0,
        "tle_line1": "1 36682U 99025DZC 25340.20518554  .00002849  00000+0  27042-2 0  9993",
        "tle_line2": "2 36682  98.4850 244.7666 0234334 294.8114  62.8827 13.70106370613038"
      },
      "geometry": {
        "type": "Point",
        "coordinates": [
          -100.52904395321734,
          -54.045436149343665
        ]
      }
    },
    {
      "type": "Feature",
      "properties": {
        "norad_id": 36684,
        "name": "FENGYUN 1C DEB",
        "group": "fengyun-1c-debris",
        "lat": 67.38073139720855,
        "lon": -81.56730382482783,
        "alt_km": 559.8199556660347,
        "timestamp": "2025-12-09T09:46:47.935066+00:00",
        "meta_object_name": "FENGYUN 1C DEB",
        "meta_object_id": "1999-025DZE",
        "meta_epoch": "2025-12-08T12:24:59.386464",
        "meta_mean_motion": 14.95697557,
        "meta_eccentricity": 0.00197461,
        "meta_inclination": 99.4536,
        "meta_ra_of_asc_node": 73.7877,
        "meta_arg_of_pericenter": 125.08,
        "meta_mean_anomaly": 235.2271,
        "meta_ephemeris_type": 0,
        "meta_classification_type": "U",
        "meta_norad_cat_id": 36684,
        "meta_element_set_no": 999,
        "meta_rev_at_epoch": 65838,
        "meta_bstar": 0.0054080499,
        "meta_mean_motion_dot": 0.00060855,
        "meta_mean_motion_ddot": 0,
        "tle_line1": "1 36684U 99025DZE 25342.51735401  .00060855  00000+0  54080-2 0  9996",
        "tle_line2": "2 36684  99.4536  73.7877 0019746 125.0800 235.2271 14.95697557658387"
      },
      "geometry": {
        "type": "Point",
        "coordinates": [
          -81.56730382482783,
          67.38073139720855
        ]
      }
    },
    {
      "type": "Feature",
      "properties": {
        "norad_id": 36686,
        "name": "FENGYUN 1C DEB",
        "group": "fengyun-1c-debris",
        "lat": -38.92685386399832,
        "lon": -12.92834101352842,
        "alt_km": 711.9522432397198,
        "timestamp": "2025-12-09T09:46:47.935077+00:00",
        "meta_object_name": "FENGYUN 1C DEB",
        "meta_object_id": "1999-025DZG",
        "meta_epoch": "2025-12-08T06:47:07.320768",
        "meta_mean_motion": 14.77124194,
        "meta_eccentricity": 0.01052891,
        "meta_inclination": 99.0012,
        "meta_ra_of_asc_node": 173.1732,
        "meta_arg_of_pericenter": 67.3219,
        "meta_mean_anomaly": 293.9079,
        "meta_ephemeris_type": 0,
        "meta_classification_type": "U",
        "meta_norad_cat_id": 36686,
        "meta_element_set_no": 999,
        "meta_rev_at_epoch": 65786,
        "meta_bstar": 0.0010962616,
        "meta_mean_motion_dot": 8.434e-05,
        "meta_mean_motion_ddot": 0,
        "tle_line1": "1 36686U 99025DZG 25342.28272362  .00008434  00000+0  10963-2 0  9991",
        "tle_line2": "2 36686  99.0012 173.1732 0105289  67.3219 293.9079 14.77124194657860"
      },
      "geometry": {
        "type": "Point",
        "coordinates": [
          -12.92834101352842,
          -38.92685386399832
        ]
      }
    },
    {
      "type": "Feature",
      "properties": {
        "norad_id": 36687,
        "name": "FENGYUN 1C DEB",
        "group": "fengyun-1c-debris",
        "lat": 12.82655382815223,
        "lon": -108.02555807912886,
        "alt_km": 899.0316666024592,
        "timestamp": "2025-12-09T09:46:47.935087+00:00",
        "meta_object_name": "FENGYUN 1C DEB",
        "meta_object_id": "1999-025DZH",
        "meta_epoch": "2025-12-03T00:48:50.166144",
        "meta_mean_motion": 14.04517636,
        "meta_eccentricity": 0.00903358,
        "meta_inclination": 98.7164,
        "meta_ra_of_asc_node": 63.8535,
        "meta_arg_of_pericenter": 292.8526,
        "meta_mean_anomaly": 66.3122,
        "meta_ephemeris_type": 0,
        "meta_classification_type": "U",
        "meta_norad_cat_id": 36687,
        "meta_element_set_no": 999,
        "meta_rev_at_epoch": 62586,
        "meta_bstar": 0.00040937059,
        "meta_mean_motion_dot": 6.35e-06,
        "meta_mean_motion_ddot": 0,
        "tle_line1": "1 36687U 99025DZH 25337.03391396  .00000635  00000+0  40937-3 0  9998",
        "tle_line2": "2 36687  98.7164  63.8535 0090335 292.8526  66.3122 14.04517636625865"
      },
      "geometry": {
        "type": "Point",
        "coordinates": [
          -108.02555807912886,
          12.82655382815223
        ]
      }
    },
    {
      "type": "Feature",
      "properties": {
        "norad_id": 36689,
        "name": "FENGYUN 1C DEB",
        "group": "fengyun-1c-debris",
        "lat": -29.609015364800445,
        "lon": -117.52004753189594,
        "alt_km": 779.9416087588679,
        "timestamp": "2025-12-09T09:46:47.935098+00:00",
        "meta_object_name": "FENGYUN 1C DEB",
        "meta_object_id": "1999-025DZK",
        "meta_epoch": "2025-11-28T10:04:14.213280",
        "meta_mean_motion": 13.74189275,
        "meta_eccentricity": 0.03131537,
        "meta_inclination": 98.4796,
        "meta_ra_of_asc_node": 227.8431,
        "meta_arg_of_pericenter": 334.7216,
        "meta_mean_anomaly": 23.8887,
        "meta_ephemeris_type": 0,
        "meta_classification_type": "U",
        "meta_norad_cat_id": 36689,
        "meta_element_set_no": 999,
        "meta_rev_at_epoch": 58016,
        "meta_bstar": 0.0027905602,
        "meta_mean_motion_dot": 3.71e-05,
        "meta_mean_motion_ddot": 0,
        "tle_line1": "1 36689U 99025DZK 25332.41960895  .00003710  00000+0  27906-2 0  9990",
        "tle_line2": "2 36689  98.4796 227.8431 0313153 334.7216  23.8887 13.74189275580169"
      },
      "geometry": {
        "type": "Point",
        "coordinates": [
          -117.52004753189594,
          -29.609015364800445
        ]
      }
    }
  ]
}